[{"OBJECT_NAME":"STARLINK-3736","OBJECT_ID":"2022-029AB","EPOCH":"2026-03-09T09:49:19.011648","MEAN_MOTION":15.08839368,"ECCENTRICITY":0.00013722,"INCLINATION":53.2176,"RA_OF_ASC_NODE":80.3803,"ARG_OF_PERICENTER":91.0355,"MEAN_ANOMALY":269.0795,"EPHEMERIS_TYPE":0,"CLASSIFICATION_TYPE":"U","NORAD_CAT_ID":52113,"ELEMENT_SET_NO":999,"REV_AT_EPOCH":22074,"BSTAR":4.1697285e-5,"MEAN_MOTION_DOT":3.76e-6,"MEAN_MOTION_DDOT":0},{"OBJECT_NAME":"OBJECT K","OBJECT_ID":"2017-042K","EPOCH":"2026-03-09T21:28:20.621568","MEAN_MOTION":15.07994228,"ECCENTRICITY":0.00097557,"INCLINATION":97.4104,"RA_OF_ASC_NODE":233.8721,"ARG_OF_PERICENTER":49.2775,"MEAN_ANOMALY":310.9299,"EPHEMERIS_TYPE":0,"CLASSIFICATION_TYPE":"U","NORAD_CAT_ID":42834,"ELEMENT_SET_NO":999,"REV_AT_EPOCH":47201,"BSTAR":0.00042776846,"MEAN_MOTION_DOT":6.528e-5,"MEAN_MOTION_DDOT":0}]
